IRIDIUM 57 [-]          
1 25273U 98019B   23279.43546287  .00000957  00000+0  32991-3 0  9995
2 25273  86.3980  44.7617 0002128  91.9402 268.2037 14.34924484336094
IRIDIUM 63 [-]          
1 25286U 98021B   23279.13356476  .00000770  00000+0  26159-3 0  9990
2 25286  86.4022 341.8622 0002374  95.0254 265.1214 14.35432536335136
IRIDIUM 69 [-]          
1 25319U 98026A   23278.83259965  .00001151  00000+0  36242-3 0  9991
2 25319  86.4041 357.1021 0000207 189.7554 170.3641 14.39598793334013
IRIDIUM 71 [-]          
1 25320U 98026B   23278.75105583  .00000994  00000+0  31006-3 0  9997
2 25320  86.4030 351.9728 0002167  34.7303 325.4037 14.39934615334274
IRIDIUM 73 [-]          
1 25344U 98032C   23278.60384616  .00000974  00000+0  24613-3 0  9994
2 25344  86.4392 309.8893 0001671  86.1676 273.9720 14.50049930340889
IRIDIUM 82 [-]          
1 25467U 98051A   23278.84925569  .00019476  00000+0  11430-2 0  9994
2 25467  86.3971  45.7859 0148838  73.7086 288.0459 15.02649915330050
IRIDIUM 2 [-]           
1 25527U 98066A   23278.91053209  .00047345  00000+0  11392-2 0  9991
2 25527  85.5159 104.1699 0003981 216.9406 143.1573 15.41093705368180
